[{"OBJECT_NAME":"ONEWEB-0720","OBJECT_ID":"2023-029AR","EPOCH":"2026-04-18T00:01:08.522976","MEAN_MOTION":13.19723631,"ECCENTRICITY":0.0002024,"INCLINATION":87.9161,"RA_OF_ASC_NODE":316.9816,"ARG_OF_PERICENTER":81.1463,"MEAN_ANOMALY":278.9899,"EPHEMERIS_TYPE":0,"CLASSIFICATION_TYPE":"U","NORAD_CAT_ID":55835,"ELEMENT_SET_NO":999,"REV_AT_EPOCH":15090,"BSTAR":0.00028042000000000003,"MEAN_MOTION_DOT":1.25e-06,"MEAN_MOTION_DDOT":0.0},{"OBJECT_NAME":"ONEWEB-0537","OBJECT_ID":"2023-043A","EPOCH":"2026-04-18T07:24:57.354624","MEAN_MOTION":13.1659423,"ECCENTRICITY":0.0001661,"INCLINATION":87.9067,"RA_OF_ASC_NODE":240.6655,"ARG_OF_PERICENTER":103.3648,"MEAN_ANOMALY":256.7668,"EPHEMERIS_TYPE":0,"CLASSIFICATION_TYPE":"U","NORAD_CAT_ID":56046,"ELEMENT_SET_NO":999,"REV_AT_EPOCH":15108,"BSTAR":-0.00012059000000000001,"MEAN_MOTION_DOT":-3.3e-07,"MEAN_MOTION_DDOT":0.0},{"OBJECT_NAME":"ONEWEB-0538","OBJECT_ID":"2023-043B","EPOCH":"2026-04-18T07:15:48.254112","MEAN_MOTION":13.16591274,"ECCENTRICITY":0.0001696,"INCLINATION":87.9064,"RA_OF_ASC_NODE":240.6687,"ARG_OF_PERICENTER":93.4156,"MEAN_ANOMALY":266.7169,"EPHEMERIS_TYPE":0,"CLASSIFICATION_TYPE":"U","NORAD_CAT_ID":56047,"ELEMENT_SET_NO":999,"REV_AT_EPOCH":15109,"BSTAR":-9.744000000000002e-05,"MEAN_MOTION_DOT":-2.4e-07,"MEAN_MOTION_DDOT":0.0},{"OBJECT_NAME":"ONEWEB-0546","OBJECT_ID":"2023-043C","EPOCH":"2026-04-18T06:57:35.372736","MEAN_MOTION":13.16594107,"ECCENTRICITY":0.0001282,"INCLINATION":87.9069,"RA_OF_ASC_NODE":240.6709,"ARG_OF_PERICENTER":116.8645,"MEAN_ANOMALY":243.2617,"EPHEMERIS_TYPE":0,"CLASSIFICATION_TYPE":"U","NORAD_CAT_ID":56048,"ELEMENT_SET_NO":999,"REV_AT_EPOCH":15108,"BSTAR":0.00025811000000000003,"MEAN_MOTION_DOT":1.12e-06,"MEAN_MOTION_DDOT":0.0},{"OBJECT_NAME":"ONEWEB-0547","OBJECT_ID":"2023-043D","EPOCH":"2026-04-18T03:29:02.423616","MEAN_MOTION":13.21824369,"ECCENTRICITY":0.0001881,"INCLINATION":87.9211,"RA_OF_ASC_NODE":255.929,"ARG_OF_PERICENTER":93.3599,"MEAN_ANOMALY":266.775,"EPHEMERIS_TYPE":0,"CLASSIFICATION_TYPE":"U","NORAD_CAT_ID":56049,"ELEMENT_SET_NO":999,"REV_AT_EPOCH":15029,"BSTAR":6.967e-05,"MEAN_MOTION_DOT":4.2e-07,"MEAN_MOTION_DDOT":0.0},{"OBJECT_NAME":"ONEWEB-0548","OBJECT_ID":"2023-043E","EPOCH":"2026-04-18T02:04:36.067584","MEAN_MOTION":13.16596515,"ECCENTRICITY":0.0002167,"INCLINATION":87.9063,"RA_OF_ASC_NODE":240.7092,"ARG_OF_PERICENTER":111.2546,"MEAN_ANOMALY":248.8817,"EPHEMERIS_TYPE":0,"CLASSIFICATION_TYPE":"U","NORAD_CAT_ID":56050,"ELEMENT_SET_NO":999,"REV_AT_EPOCH":15105,"BSTAR":-0.00027004,"MEAN_MOTION_DOT":-9e-07,"MEAN_MOTION_DDOT":0.0},{"OBJECT_NAME":"ONEWEB-0549","OBJECT_ID":"2023-043F","EPOCH":"2026-04-18T03:20:35.733408","MEAN_MOTION":13.21827465,"ECCENTRICITY":0.0001795,"INCLINATION":87.9199,"RA_OF_ASC_NODE":255.9405,"ARG_OF_PERICENTER":90.7055,"MEAN_ANOMALY":269.4284,"EPHEMERIS_TYPE":0,"CLASSIFICATION_TYPE":"U","NORAD_CAT_ID":56051,"ELEMENT_SET_NO":999,"REV_AT_EPOCH":15029,"BSTAR":8.227600000000001e-05,"MEAN_MOTION_DOT":4.7e-07,"MEAN_MOTION_DDOT":0.0},{"OBJECT_NAME":"ONEWEB-0550","OBJECT_ID":"2023-043G","EPOCH":"2026-04-18T03:01:12.934560","MEAN_MOTION":13.21826182,"ECCENTRICITY":0.000201,"INCLINATION":87.9199,"RA_OF_ASC_NODE":255.9395,"ARG_OF_PERICENTER":105.9594,"MEAN_ANOMALY":254.1762,"EPHEMERIS_TYPE":0,"CLASSIFICATION_TYPE":"U","NORAD_CAT_ID":56052,"ELEMENT_SET_NO":999,"REV_AT_EPOCH":15029,"BSTAR":0.00027463,"MEAN_MOTION_DOT":1.26e-06,"MEAN_MOTION_DDOT":0.0},{"OBJECT_NAME":"ONEWEB-0551","OBJECT_ID":"2023-043H","EPOCH":"2026-04-18T03:30:14.674752","MEAN_MOTION":13.15547802,"ECCENTRICITY":0.0001792,"INCLINATION":87.894,"RA_OF_ASC_NODE":271.2051,"ARG_OF_PERICENTER":85.6608,"MEAN_ANOMALY":274.4727,"EPHEMERIS_TYPE":0,"CLASSIFICATION_TYPE":"U","NORAD_CAT_ID":56053,"ELEMENT_SET_NO":999,"REV_AT_EPOCH":14850,"BSTAR":0.00016205,"MEAN_MOTION_DOT":7.4e-07,"MEAN_MOTION_DDOT":0.0},{"OBJECT_NAME":"ONEWEB-0552","OBJECT_ID":"2023-043J","EPOCH":"2026-04-18T02:53:56.840928","MEAN_MOTION":13.21826484,"ECCENTRICITY":0.0002044,"INCLINATION":87.9199,"RA_OF_ASC_NODE":255.9474,"ARG_OF_PERICENTER":95.4568,"MEAN_ANOMALY":264.6799,"EPHEMERIS_TYPE":0,"CLASSIFICATION_TYPE":"U","NORAD_CAT_ID":56054,"ELEMENT_SET_NO":999,"REV_AT_EPOCH":15029,"BSTAR":0.0002893,"MEAN_MOTION_DOT":1.33e-06,"MEAN_MOTION_DDOT":0.0},{"OBJECT_NAME":"ONEWEB-0553","OBJECT_ID":"2023-043K","EPOCH":"2026-04-18T01:38:24.495648","MEAN_MOTION":13.16593824,"ECCENTRICITY":0.0001606,"INCLINATION":87.9069,"RA_OF_ASC_NODE":240.7166,"ARG_OF_PERICENTER":113.0848,"MEAN_ANOMALY":247.0453,"EPHEMERIS_TYPE":0,"CLASSIFICATION_TYPE":"U","NORAD_CAT_ID":56055,"ELEMENT_SET_NO":999,"REV_AT_EPOCH":15106,"BSTAR":-0.00010624,"MEAN_MOTION_DOT":-2.8e-07,"MEAN_MOTION_DDOT":0.0},{"OBJECT_NAME":"ONEWEB-0554","OBJECT_ID":"2023-043L","EPOCH":"2026-04-18T01:20:10.173984","MEAN_MOTION":13.16593441,"ECCENTRICITY":0.0001998,"INCLINATION":87.9065,"RA_OF_ASC_NODE":240.7288,"ARG_OF_PERICENTER":109.9181,"MEAN_ANOMALY":250.2165,"EPHEMERIS_TYPE":0,"CLASSIFICATION_TYPE":"U","NORAD_CAT_ID":56056,"ELEMENT_SET_NO":999,"REV_AT_EPOCH":15104,"BSTAR":6.9725e-05,"MEAN_MOTION_DOT":4e-07,"MEAN_MOTION_DDOT":0.0},{"OBJECT_NAME":"ONEWEB-0555","OBJECT_ID":"2023-043M","EPOCH":"2026-04-18T02:14:51.360864","MEAN_MOTION":13.16592567,"ECCENTRICITY":0.0001562,"INCLINATION":87.9072,"RA_OF_ASC_NODE":240.7072,"ARG_OF_PERICENTER":115.8443,"MEAN_ANOMALY":244.2849,"EPHEMERIS_TYPE":0,"CLASSIFICATION_TYPE":"U","NORAD_CAT_ID":56057,"ELEMENT_SET_NO":999,"REV_AT_EPOCH":15105,"BSTAR":-0.0011832,"MEAN_MOTION_DOT":-4.39e-06,"MEAN_MOTION_DDOT":0.0},{"OBJECT_NAME":"ONEWEB-0557","OBJECT_ID":"2023-043N","EPOCH":"2026-04-18T02:35:24.357120","MEAN_MOTION":13.16593023,"ECCENTRICITY":0.0002287,"INCLINATION":87.9064,"RA_OF_ASC_NODE":240.7153,"ARG_OF_PERICENTER":135.9469,"MEAN_ANOMALY":224.1845,"EPHEMERIS_TYPE":0,"CLASSIFICATION_TYPE":"U","NORAD_CAT_ID":56058,"ELEMENT_SET_NO":999,"REV_AT_EPOCH":15105,"BSTAR":-8.6654e-05,"MEAN_MOTION_DOT":-2e-07,"MEAN_MOTION_DDOT":0.0},{"OBJECT_NAME":"ONEWEB-0558","OBJECT_ID":"2023-043P","EPOCH":"2026-04-18T02:44:14.121312","MEAN_MOTION":13.21827993,"ECCENTRICITY":0.0001922,"INCLINATION":87.9202,"RA_OF_ASC_NODE":255.9423,"ARG_OF_PERICENTER":84.6602,"MEAN_ANOMALY":275.4751,"EPHEMERIS_TYPE":0,"CLASSIFICATION_TYPE":"U","NORAD_CAT_ID":56059,"ELEMENT_SET_NO":999,"REV_AT_EPOCH":15030,"BSTAR":1.7663e-05,"MEAN_MOTION_DOT":2e-07,"MEAN_MOTION_DDOT":0.0},{"OBJECT_NAME":"ONEWEB-0559","OBJECT_ID":"2023-043Q","EPOCH":"2026-04-18T02:27:16.362144","MEAN_MOTION":13.21823904,"ECCENTRICITY":0.0001906,"INCLINATION":87.9202,"RA_OF_ASC_NODE":255.9381,"ARG_OF_PERICENTER":92.8045,"MEAN_ANOMALY":267.3307,"EPHEMERIS_TYPE":0,"CLASSIFICATION_TYPE":"U","NORAD_CAT_ID":56060,"ELEMENT_SET_NO":999,"REV_AT_EPOCH":15031,"BSTAR":4.2914e-05,"MEAN_MOTION_DOT":3.1e-07,"MEAN_MOTION_DDOT":0.0}]