ONEWEB-0720             
1 55835U 23029AR  26108.00079309  .00000125  00000+0  28042-3 0  9993
2 55835  87.9161 316.9816 0002024  81.1463 278.9899 13.19723631150908
ONEWEB-0537             
1 56046U 23043A   26108.30899716 -.00000033  00000+0 -12059-3 0  9990
2 56046  87.9067 240.6655 0001661 103.3648 256.7668 13.16594230151086
ONEWEB-0538             
1 56047U 23043B   26108.30264183 -.00000024  00000+0 -97440-4 0  9993
2 56047  87.9064 240.6687 0001696  93.4156 266.7169 13.16591274151093
ONEWEB-0546             
1 56048U 23043C   26108.28999274  .00000112  00000+0  25811-3 0  9995
2 56048  87.9069 240.6709 0001282 116.8645 243.2617 13.16594107151083
ONEWEB-0547             
1 56049U 23043D   26108.14516694  .00000042  00000+0  69670-4 0  9996
2 56049  87.9211 255.9290 0001881  93.3599 266.7750 13.21824369150291
ONEWEB-0548             
1 56050U 23043E   26108.08652856 -.00000090  00000+0 -27004-3 0  9991
2 56050  87.9063 240.7092 0002167 111.2546 248.8817 13.16596515151053
ONEWEB-0549             
1 56051U 23043F   26108.13930247  .00000047  00000+0  82276-4 0  9994
2 56051  87.9199 255.9405 0001795  90.7055 269.4284 13.21827465150291
ONEWEB-0550             
1 56052U 23043G   26108.12584415  .00000126  00000+0  27463-3 0  9990
2 56052  87.9199 255.9395 0002010 105.9594 254.1762 13.21826182150295
ONEWEB-0551             
1 56053U 23043H   26108.14600318  .00000074  00000+0  16205-3 0  9998
2 56053  87.8940 271.2051 0001792  85.6608 274.4727 13.15547802148504
ONEWEB-0552             
1 56054U 23043J   26108.12079677  .00000133  00000+0  28930-3 0  9999
2 56054  87.9199 255.9474 0002044  95.4568 264.6799 13.21826484150297
ONEWEB-0553             
1 56055U 23043K   26108.06833907 -.00000028  00000+0 -10624-3 0  9993
2 56055  87.9069 240.7166 0001606 113.0848 247.0453 13.16593824151066
ONEWEB-0554             
1 56056U 23043L   26108.05567331  .00000040  00000+0  69725-4 0  9997
2 56056  87.9065 240.7288 0001998 109.9181 250.2165 13.16593441151045
ONEWEB-0555             
1 56057U 23043M   26108.09365001 -.00000439  00000+0 -11832-2 0  9990
2 56057  87.9072 240.7072 0001562 115.8443 244.2849 13.16592567151050
ONEWEB-0557             
1 56058U 23043N   26108.10792080 -.00000020  00000+0 -86654-4 0  9996
2 56058  87.9064 240.7153 0002287 135.9469 224.1845 13.16593023151059
ONEWEB-0558             
1 56059U 23043P   26108.11405233  .00000020  00000+0  17663-4 0  9991
2 56059  87.9202 255.9423 0001922  84.6602 275.4751 13.21827993150300
ONEWEB-0559             
1 56060U 23043Q   26108.10227271  .00000031  00000+0  42914-4 0  9995
2 56060  87.9202 255.9381 0001906  92.8045 267.3307 13.21823904150315
